[Satellite]
VERSION=1.1
NAME=COSMOS 2475 (743)
NICKNAME=COSMOS 2475 (743)
TLE1=1 37869U 11064C   18020.69547564  .00000074  00000-0  00000-0 0  9993
TLE2=2 37869  64.5027 176.9028 0017879 269.2791 343.5337  2.13101942 48362
